Satellite: AO-51
Catalog number: 28375
Epoch time:      10216.48706809
Element set:     740
Inclination:      098.0649 deg
RA of node:       207.2392 deg
Eccentricity:    0.0083952
Arg of perigee:   311.6525 deg
Mean anomaly:     047.7502 deg
Mean motion:   14.40692830 rev/day
Decay rate:        1.0e-07 rev/day^2
Epoch rev:           32046
Checksum:              294

Satellite: GENESAT1
Catalog number: 29655
Epoch time:      10216.61700559
Element set:     226
Inclination:      040.0059 deg
RA of node:       067.3006 deg
Eccentricity:    0.0005079
Arg of perigee:   297.8744 deg
Mean anomaly:     064.7087 deg
Mean motion:   16.44862838 rev/day
Decay rate:  1.0637092e-01 rev/day^2
Epoch rev:           20777
Checksum:              320

Satellite: CP3
Catalog number: 31129
Epoch time:      10216.58259394
Element set:    0644
Inclination:      097.9355 deg
RA of node:       253.5554 deg
Eccentricity:    0.0104617
Arg of perigee:   084.5710 deg
Mean anomaly:     276.7354 deg
Mean motion:   14.52285712 rev/day
Decay rate:       2.14e-06 rev/day^2
Epoch rev:           17488
Checksum:              314

Satellite: CO-65
Catalog number: 32785
Epoch time:      10216.18010072
Element set:    0750
Inclination:      097.8920 deg
RA of node:       280.4359 deg
Eccentricity:    0.0015917
Arg of perigee:   125.5392 deg
Mean anomaly:     234.7298 deg
Mean motion:   14.81688015 rev/day
Decay rate:       -8.9e-07 rev/day^2
Epoch rev:           12259
Checksum:              318

Satellite: KKS-1
Catalog number: 33493
Epoch time:      10217.70932382
Element set:     729
Inclination:      098.0903 deg
RA of node:       337.6372 deg
Eccentricity:    0.0019626
Arg of perigee:   345.0086 deg
Mean anomaly:     015.0548 deg
Mean motion:   14.81052037 rev/day
Decay rate:       4.51e-06 rev/day^2
Epoch rev:            8281
Checksum:              289

Satellite: SOHLA-1
Catalog number: 33496
Epoch time:      10216.70989730
Element set:    0171
Inclination:      098.0609 deg
RA of node:       325.1643 deg
Eccentricity:    0.0007598
Arg of perigee:   053.6939 deg
Mean anomaly:     306.4965 deg
Mean motion:   14.69506295 rev/day
Decay rate:        7.1e-07 rev/day^2
Epoch rev:           08200
Checksum:              317

Satellite: TISAT-1
Catalog number: 36799
Epoch time:      10216.72771421
Element set:    0044
Inclination:      098.1430 deg
RA of node:       276.2140 deg
Eccentricity:    0.0014657
Arg of perigee:   215.5100 deg
Mean anomaly:     144.5183 deg
Mean motion:   14.80132133 rev/day
Decay rate:       2.58e-06 rev/day^2
Epoch rev:           00349
Checksum:              261

Satellite: STUDSAT
Catalog number: 36801
Epoch time:      10216.73697962
Element set:    0059
Inclination:      098.1461 deg
RA of node:       276.2007 deg
Eccentricity:    0.0013194
Arg of perigee:   202.8181 deg
Mean anomaly:     157.2444 deg
Mean motion:   14.79564456 rev/day
Decay rate:       8.84e-06 rev/day^2
Epoch rev:           00349
Checksum:              307

/EX
SB KEPS @ AMSAT  $ORB10217.W
Orbital Elements  10217.WEATHER

HR AMSAT ORBITAL ELEMENTS FOR WEATHER SATELLITES
FROM WA5QGD FORT WORTH,TX August 5, 2010
Send Subscribe/unsubscribe to KEPS at http://www.amsat.org/mailman/listinfo/keps
BID: ORB10217.W
TO ALL RADIO AMATEURS BT

Satellite: NOAA-10
Catalog number: 16969
Epoch time:      10216.72972452
Element set:    0158
Inclination:      098.6543 deg
RA of node:       245.2363 deg
Eccentricity:    0.0013181
Arg of perigee:   070.6544 deg
Mean anomaly:     289.6043 deg
Mean motion:   14.27422570 rev/day
Decay rate:       -3.3e-07 rev/day^2
Epoch rev:           24250
Checksum:              291

Satellite: NOAA-11
Catalog number: 19531
Epoch time:      10216.82113331
Element set:    0170
Inclination:      098.7688 deg
RA of node:       305.0184 deg
Eccentricity:    0.0011933
Arg of perigee:   013.5208 deg
Mean anomaly:     346.6291 deg
Mean motion:   14.14930572 rev/day
Decay rate:      -2.23e-06 rev/day^2
Epoch rev:           12801
Checksum:              261

Satellite: NOAA-12
Catalog number: 21263
Epoch time:      10216.70750616
Element set:    0659
Inclination:      098.7653 deg
RA of node:       229.8615 deg
Eccentricity:    0.0012948
Arg of perigee:   029.7367 deg
Mean anomaly:     330.4548 deg
Mean motion:   14.25646952 rev/day
Decay rate:        9.5e-07 rev/day^2
Epoch rev:           99931
Checksum:              335

Satellite: MET-3/5
Catalog number: 21655
Epoch time:      10217.78784836
Element set:     880
Inclination:      082.5566 deg
RA of node:       273.5933 deg
Eccentricity:    0.0012503
Arg of perigee:   220.6249 deg
Mean anomaly:     139.3903 deg
Mean motion:   13.17025058 rev/day
Decay rate:        5.1e-07 rev/day^2
Epoch rev:           91220
Checksum:              296

Satellite: MET-2/21
Catalog number: 22782
Epoch time:      10216.52462894
Element set:    0848
Inclination:      082.5451 deg
RA of node:       214.0890 deg
Eccentricity:    0.0020717
Arg of perigee:   267.2173 deg
Mean anomaly:     092.6617 deg
Mean motion:   13.83645350 rev/day
Decay rate:       -2.7e-07 rev/day^2
Epoch rev:           85476
Checksum:              310

Satellite: OKEAN-4
Catalog number: 23317
Epoch time:      10216.70493698
Element set:    0304
Inclination:      082.5423 deg
RA of node:       308.5750 deg
Eccentricity:    0.0024023
Arg of perigee:   082.7054 deg
Mean anomaly:     277.6904 deg
Mean motion:   14.82843405 rev/day
Decay rate:       3.39e-06 rev/day^2
Epoch rev:           85364
Checksum:              297

Satellite: NOAA-14
Catalog number: 23455
Epoch time:      10216.69119177
Element set:    0150
Inclination:      098.8770 deg
RA of node:       297.0941 deg
Eccentricity:    0.0010301
Arg of perigee:   096.9595 deg
Mean anomaly:     263.2763 deg
Mean motion:   14.13790628 rev/day
Decay rate:       -2.0e-07 rev/day^2
Epoch rev:           80435
Checksum:              304

Satellite: NOAA-15
Catalog number: 25338
Epoch time:      10216.88880024
Element set:    0474
Inclination:      098.6223 deg
RA of node:       202.9477 deg
Eccentricity:    0.0009720
Arg of perigee:   295.9037 deg
Mean anomaly:     064.1143 deg
Mean motion:   14.24845350 rev/day
Decay rate:        1.8e-07 rev/day^2
Epoch rev:           63568
Checksum:              307

Satellite: RESURS
Catalog number: 25394
Epoch time:      10217.80723580
Element set:     570
Inclination:      098.3041 deg
RA of node:       233.1850 deg
Eccentricity:    0.0002579
Arg of perigee:   075.3273 deg
Mean anomaly:     284.8193 deg
Mean motion:   14.24206914 rev/day
Decay rate:       -2.1e-07 rev/day^2
Epoch rev:           62741
Checksum:              278

