AO-51
1 28375U 04025K   10216.48706809  .00000010  00000-0  15813-4 0  7405
2 28375 098.0649 207.2392 0083952 311.6525 047.7502 14.40692830320465
GENESAT1
1 29655U 06058C   10216.61700559  .10637092  69904-5  33715-3 0  2265
2 29655 040.0059 067.3006 0005079 297.8744 064.7087 16.44862838207776
CP3
1 31129U 07012N   10216.58259394  .00000214  00000-0  59437-4 0 06447
2 31129 097.9355 253.5554 0104617 084.5710 276.7354 14.52285712174888
CO-65
1 32785U 08021C   10216.18010072 -.00000089  00000-0 -45826-5 0 07509
2 32785 097.8920 280.4359 0015917 125.5392 234.7298 14.81688015122599
KKS-1
1 33493U 09002B   10217.70932382  .00000451  00000-0  65089-4 0  7291
2 33493 098.0903 337.6372 0019626 345.0086 015.0548 14.81052037 82817
SOHLA-1
1 33496U 09002E   10216.70989730  .00000071  00000-0  20238-4 0 01718
2 33496 098.0609 325.1643 0007598 053.6939 306.4965 14.69506295082007
TISAT-1
1 36799U 10035E   10216.72771421  .00000258  00000-0  41180-4 0 00448
2 36799 098.1430 276.2140 0014657 215.5100 144.5183 14.80132133003498
STUDSAT
1 36801U 10035G   10216.73697962  .00000884  00000-0  12519-3 0 00594
2 36801 098.1461 276.2007 0013194 202.8181 157.2444 14.79564456003497
NOAA-10
1 16969U 86073A   10216.72972452 -.00000033  00000-0  44669-5 0 01581
2 16969 098.6543 245.2363 0013181 070.6544 289.6043 14.27422570242502
NOAA-11
1 19531U 88089A   10216.82113331 -.00000223  00000-0 -92730-4 0 01709
2 19531 098.7688 305.0184 0011933 013.5208 346.6291 14.14930572128013
NOAA-12
1 21263U 91032A   10216.70750616  .00000095  00000-0  58926-4 0 06592
2 21263 098.7653 229.8615 0012948 029.7367 330.4548 14.25646952999317
MET-3/5
1 21655U 91056A   10217.78784836  .00000051  00000-0  10000-3 0  8801
2 21655 082.5566 273.5933 0012503 220.6249 139.3903 13.17025058912205
MET-2/21
1 22782U 93055A   10216.52462894 -.00000027  00000-0 -37605-4 0 08482
2 22782 082.5451 214.0890 0020717 267.2173 092.6617 13.83645350854766
OKEAN-4
1 23317U 94066A   10216.70493698  .00000339  00000-0  38702-4 0 03046
2 23317 082.5423 308.5750 0024023 082.7054 277.6904 14.82843405853647
NOAA-14
1 23455U 94089A   10216.69119177 -.00000020  00000-0  12596-4 0 01509
2 23455 098.8770 297.0941 0010301 096.9595 263.2763 14.13790628804350
NOAA-15
1 25338U 98030A   10216.88880024  .00000018  00000-0  26299-4 0 04748
2 25338 098.6223 202.9477 0009720 295.9037 064.1143 14.24845350635680
RESURS
1 25394U 98043A   10217.80723580 -.00000021  00000-0  86891-5 0  5707
2 25394 098.3041 233.1850 0002579 075.3273 284.8193 14.24206914627410
